CCSDS_OMM_VERS = 2.0
CREATION_DATE  = 
ORIGINATOR     = 

OBJECT_NAME    = ATLAS CENTAUR 2
OBJECT_ID      = 1963-047A
CENTER_NAME    = EARTH
REF_FRAME      = TEME
TIME_SYSTEM    = UTC
MEAN_ELEMENT_THEORY = SGP/SGP4

EPOCH          = 2026-01-19T14:56:35.773728
MEAN_MOTION    = 14.11911257
ECCENTRICITY   = .05483493
INCLINATION    = 30.3540
RA_OF_ASC_NODE = 109.8223
ARG_OF_PERICENTER = 7.9144
MEAN_ANOMALY   = 352.9713

EPHEMERIS_TYPE = 0
CLASSIFICATION_TYPE = U
NORAD_CAT_ID   = 694
ELEMENT_SET_NO = 999
REV_AT_EPOCH   = 12468
BSTAR          = .15520878E-3
MEAN_MOTION_DOT = .1358E-4
MEAN_MOTION_DDOT = 0

CCSDS_OMM_VERS = 2.0
CREATION_DATE  = 
ORIGINATOR     = 

OBJECT_NAME    = THOR AGENA D R/B
OBJECT_ID      = 1964-002A
CENTER_NAME    = EARTH
REF_FRAME      = TEME
TIME_SYSTEM    = UTC
MEAN_ELEMENT_THEORY = SGP/SGP4

EPOCH          = 2026-01-19T23:01:38.388576
MEAN_MOTION    = 14.33984444
ECCENTRICITY   = .00335615
INCLINATION    = 99.1221
RA_OF_ASC_NODE = 30.6464
ARG_OF_PERICENTER = 41.6584
MEAN_ANOMALY   = 318.7146

EPHEMERIS_TYPE = 0
CLASSIFICATION_TYPE = U
NORAD_CAT_ID   = 733
ELEMENT_SET_NO = 999
REV_AT_EPOCH   = 23131
BSTAR          = .10500628E-3
MEAN_MOTION_DOT = .246E-5
MEAN_MOTION_DDOT = 0

CCSDS_OMM_VERS = 2.0
CREATION_DATE  = 
ORIGINATOR     = 

OBJECT_NAME    = SL-3 R/B
OBJECT_ID      = 1964-053B
CENTER_NAME    = EARTH
REF_FRAME      = TEME
TIME_SYSTEM    = UTC
MEAN_ELEMENT_THEORY = SGP/SGP4

EPOCH          = 2026-01-19T16:36:43.298784
MEAN_MOTION    = 14.61309475
ECCENTRICITY   = .00769887
INCLINATION    = 65.0771
RA_OF_ASC_NODE = 114.8816
ARG_OF_PERICENTER = 307.8676
MEAN_ANOMALY   = 51.5476

EPHEMERIS_TYPE = 0
CLASSIFICATION_TYPE = U
NORAD_CAT_ID   = 877
ELEMENT_SET_NO = 999
REV_AT_EPOCH   = 25963
BSTAR          = .80000025E-4
MEAN_MOTION_DOT = .287E-5
MEAN_MOTION_DDOT = 0

CCSDS_OMM_VERS = 2.0
CREATION_DATE  = 
ORIGINATOR     = 

OBJECT_NAME    = SL-8 R/B
OBJECT_ID      = 1967-045B
CENTER_NAME    = EARTH
REF_FRAME      = TEME
TIME_SYSTEM    = UTC
MEAN_ELEMENT_THEORY = SGP/SGP4

EPOCH          = 2026-01-19T13:53:51.734400
MEAN_MOTION    = 14.45574625
ECCENTRICITY   = .00628393
INCLINATION    = 74.0106
RA_OF_ASC_NODE = 79.8058
ARG_OF_PERICENTER = 99.0760
MEAN_ANOMALY   = 261.7516

EPHEMERIS_TYPE = 0
CLASSIFICATION_TYPE = U
NORAD_CAT_ID   = 2802
ELEMENT_SET_NO = 999
REV_AT_EPOCH   = 8192
BSTAR          = .76356751E-4
MEAN_MOTION_DOT = .248E-5
MEAN_MOTION_DDOT = 0

CCSDS_OMM_VERS = 2.0
CREATION_DATE  = 
ORIGINATOR     = 

OBJECT_NAME    = SL-8 R/B
OBJECT_ID      = 1968-040B
CENTER_NAME    = EARTH
REF_FRAME      = TEME
TIME_SYSTEM    = UTC
MEAN_ELEMENT_THEORY = SGP/SGP4

EPOCH          = 2026-01-19T18:55:27.384960
MEAN_MOTION    = 15.02824754
ECCENTRICITY   = .0026238
INCLINATION    = 74.0305
RA_OF_ASC_NODE = 53.5843
ARG_OF_PERICENTER = 249.9196
MEAN_ANOMALY   = 109.9168

EPHEMERIS_TYPE = 0
CLASSIFICATION_TYPE = U
NORAD_CAT_ID   = 3230
ELEMENT_SET_NO = 999
REV_AT_EPOCH   = 8266
BSTAR          = .23069556E-3
MEAN_MOTION_DOT = .307E-4
MEAN_MOTION_DDOT = 0

CCSDS_OMM_VERS = 2.0
CREATION_DATE  = 
ORIGINATOR     = 

OBJECT_NAME    = OAO 2
OBJECT_ID      = 1968-110A
CENTER_NAME    = EARTH
REF_FRAME      = TEME
TIME_SYSTEM    = UTC
MEAN_ELEMENT_THEORY = SGP/SGP4

EPOCH          = 2026-01-19T19:13:57.100512
MEAN_MOTION    = 14.47269667
ECCENTRICITY   = .00053381
INCLINATION    = 34.9916
RA_OF_ASC_NODE = 178.1708
ARG_OF_PERICENTER = 172.6352
MEAN_ANOMALY   = 187.4418

EPHEMERIS_TYPE = 0
CLASSIFICATION_TYPE = U
NORAD_CAT_ID   = 3597
ELEMENT_SET_NO = 999
REV_AT_EPOCH   = 1201
BSTAR          = .61773966E-4
MEAN_MOTION_DOT = .21E-5
MEAN_MOTION_DDOT = 0

CCSDS_OMM_VERS = 2.0
CREATION_DATE  = 
ORIGINATOR     = 

OBJECT_NAME    = ISIS 1
OBJECT_ID      = 1969-009A
CENTER_NAME    = EARTH
REF_FRAME      = TEME
TIME_SYSTEM    = UTC
MEAN_ELEMENT_THEORY = SGP/SGP4

EPOCH          = 2026-01-19T20:35:30.138144
MEAN_MOTION    = 11.30381349
ECCENTRICITY   = .17077891
INCLINATION    = 88.4530
RA_OF_ASC_NODE = 160.6305
ARG_OF_PERICENTER = 187.6987
MEAN_ANOMALY   = 169.4371

EPHEMERIS_TYPE = 0
CLASSIFICATION_TYPE = U
NORAD_CAT_ID   = 3669
ELEMENT_SET_NO = 999
REV_AT_EPOCH   = 34301
BSTAR          = .31599551E-3
MEAN_MOTION_DOT = .452E-5
MEAN_MOTION_DDOT = 0

CCSDS_OMM_VERS = 2.0
CREATION_DATE  = 
ORIGINATOR     = 

OBJECT_NAME    = SERT 2
OBJECT_ID      = 1970-009A
CENTER_NAME    = EARTH
REF_FRAME      = TEME
TIME_SYSTEM    = UTC
MEAN_ELEMENT_THEORY = SGP/SGP4

EPOCH          = 2026-01-19T21:05:20.425632
MEAN_MOTION    = 13.58723334
ECCENTRICITY   = .00041733
INCLINATION    = 99.2700
RA_OF_ASC_NODE = 325.6597
ARG_OF_PERICENTER = 295.7604
MEAN_ANOMALY   = 132.0109

EPHEMERIS_TYPE = 0
CLASSIFICATION_TYPE = U
NORAD_CAT_ID   = 4327
ELEMENT_SET_NO = 999
REV_AT_EPOCH   = 77326
BSTAR          = .6264801E-4
MEAN_MOTION_DOT = .4E-7
MEAN_MOTION_DDOT = 0

CCSDS_OMM_VERS = 2.0
CREATION_DATE  = 
ORIGINATOR     = 

OBJECT_NAME    = SL-3 R/B
OBJECT_ID      = 1971-028B
CENTER_NAME    = EARTH
REF_FRAME      = TEME
TIME_SYSTEM    = UTC
MEAN_ELEMENT_THEORY = SGP/SGP4

EPOCH          = 2026-01-19T22:40:20.861760
MEAN_MOTION    = 15.57133352
ECCENTRICITY   = .00182976
INCLINATION    = 81.2383
RA_OF_ASC_NODE = 112.0600
ARG_OF_PERICENTER = 104.3448
MEAN_ANOMALY   = 255.9836

EPHEMERIS_TYPE = 0
CLASSIFICATION_TYPE = U
NORAD_CAT_ID   = 5118
ELEMENT_SET_NO = 999
REV_AT_EPOCH   = 98107
BSTAR          = .55082757E-3
MEAN_MOTION_DOT = .40412E-3
MEAN_MOTION_DDOT = 0

CCSDS_OMM_VERS = 2.0
CREATION_DATE  = 
ORIGINATOR     = 

OBJECT_NAME    = ASTEX 1
OBJECT_ID      = 1971-089A
CENTER_NAME    = EARTH
REF_FRAME      = TEME
TIME_SYSTEM    = UTC
MEAN_ELEMENT_THEORY = SGP/SGP4

EPOCH          = 2026-01-19T20:23:55.601376
MEAN_MOTION    = 14.50695435
ECCENTRICITY   = .00135788
INCLINATION    = 92.7157
RA_OF_ASC_NODE = 135.9545
ARG_OF_PERICENTER = 246.0807
MEAN_ANOMALY   = 113.8977

EPHEMERIS_TYPE = 0
CLASSIFICATION_TYPE = U
NORAD_CAT_ID   = 5560
ELEMENT_SET_NO = 999
REV_AT_EPOCH   = 85522
BSTAR          = .14683832E-3
MEAN_MOTION_DOT = .576E-5
MEAN_MOTION_DDOT = 0

CCSDS_OMM_VERS = 2.0
CREATION_DATE  = 
ORIGINATOR     = 

OBJECT_NAME    = SL-8 R/B
OBJECT_ID      = 1971-119B
CENTER_NAME    = EARTH
REF_FRAME      = TEME
TIME_SYSTEM    = UTC
MEAN_ELEMENT_THEORY = SGP/SGP4

EPOCH          = 2026-01-19T22:16:18.936480
MEAN_MOTION    = 14.36551761
ECCENTRICITY   = .05560177
INCLINATION    = 73.8876
RA_OF_ASC_NODE = 266.7773
ARG_OF_PERICENTER = 243.3610
MEAN_ANOMALY   = 110.9580

EPHEMERIS_TYPE = 0
CLASSIFICATION_TYPE = U
NORAD_CAT_ID   = 5730
ELEMENT_SET_NO = 999
REV_AT_EPOCH   = 64848
BSTAR          = .42814559E-3
MEAN_MOTION_DOT = .8229E-4
MEAN_MOTION_DDOT = 0

CCSDS_OMM_VERS = 2.0
CREATION_DATE  = 
ORIGINATOR     = 

OBJECT_NAME    = OAO 3 (COPERNICUS)
OBJECT_ID      = 1972-065A
CENTER_NAME    = EARTH
REF_FRAME      = TEME
TIME_SYSTEM    = UTC
MEAN_ELEMENT_THEORY = SGP/SGP4

EPOCH          = 2026-01-19T23:52:05.885184
MEAN_MOTION    = 14.59945222
ECCENTRICITY   = .00059794
INCLINATION    = 35.0040
RA_OF_ASC_NODE = 214.7417
ARG_OF_PERICENTER = 125.7243
MEAN_ANOMALY   = 35.3679

EPHEMERIS_TYPE = 0
CLASSIFICATION_TYPE = U
NORAD_CAT_ID   = 6153
ELEMENT_SET_NO = 999
REV_AT_EPOCH   = 83907
BSTAR          = .92753957E-4
MEAN_MOTION_DOT = .43E-5
MEAN_MOTION_DDOT = 0

