ATLAS CENTAUR 2         
1 00694U 63047A   26019.62263627  .00001358  00000+0  15521-3 0  9994
2 00694  30.3540 109.8223 0548349   7.9144 352.9713 14.11911257124682
THOR AGENA D R/B        
1 00733U 64002A   26019.95947209  .00000246  00000+0  10501-3 0  9999
2 00733  99.1221  30.6464 0033561  41.6584 318.7146 14.33984444231312
SL-3 R/B                
1 00877U 64053B   26019.69216781  .00000287  00000+0  80000-4 0  9996
2 00877  65.0771 114.8816 0076988 307.8676  51.5476 14.61309475259637
SL-8 R/B                
1 02802U 67045B   26019.57907100  .00000248  00000+0  76357-4 0  9996
2 02802  74.0106  79.8058 0062839  99.0760 261.7516 14.45574625 81929
SL-8 R/B                
1 03230U 68040B   26019.78851140  .00003070  00000+0  23070-3 0  9992
2 03230  74.0305  53.5843 0026238 249.9196 109.9168 15.02824754 82662
OAO 2                   
1 03597U 68110A   26019.80135533  .00000210  00000+0  61774-4 0  9997
2 03597  34.9916 178.1708 0005338 172.6352 187.4418 14.47269667 12014
ISIS 1                  
1 03669U 69009A   26019.85798771  .00000452  00000+0  31600-3 0  9991
2 03669  88.4530 160.6305 1707789 187.6987 169.4371 11.30381349343015
SERT 2                  
1 04327U 70009A   26019.87870863  .00000004  00000+0  62648-4 0  9990
2 04327  99.2700 325.6597 0004173 295.7604 132.0109 13.58723334773260
SL-3 R/B                
1 05118U 71028B   26019.94468590  .00040412  00000+0  55083-3 0  9990
2 05118  81.2383 112.0600 0018297 104.3448 255.9836 15.57133352981071
ASTEX 1                 
1 05560U 71089A   26019.84994909  .00000576  00000+0  14684-3 0  9994
2 05560  92.7157 135.9545 0013578 246.0807 113.8977 14.50695435855222
SL-8 R/B                
1 05730U 71119B   26019.92799695  .00008229  00000+0  42815-3 0  9991
2 05730  73.8876 266.7773 0556017 243.3610 110.9580 14.36551761648480
OAO 3 (COPERNICUS)      
1 06153U 72065A   26019.99451256  .00000430  00000+0  92754-4 0  9991
2 06153  35.0040 214.7417 0005979 125.7243  35.3679 14.59945222839072
